NORAD_CAT_ID,OBJECT_NAME,OBJECT_TYPE,EPOCH,MEAN_MOTION,ECCENTRICITY,INCLINATION,RA_OF_ASC_NODE,ARG_OF_PERICENTER,MEAN_ANOMALY,BSTAR,MEAN_MOTION_DOT,MEAN_MOTION_DDOT,TLE_LINE0,TLE_LINE1,TLE_LINE2,SEMIMAJOR_AXIS,PERIOD,APOGEE,PERIGEE,DECAYED
54205.0,STARLINK-5249,PAYLOAD,2023-05-07 18:32:48,15.08840379,0.0001159,53.2169,328.6653,110.9107,249.201,4.5708e-05,4.4e-06,0.0,0 STARLINK-5249,1 54205U 22141BA  23127.77278590  .00000440  00000-0  45708-4 0  9992,2 54205  53.2169 328.6653 0001159 110.9107 249.2010 15.08840379 29691,6917.879,95.438,540.546,538.942,0.0
54205.0,STARLINK-5249,PAYLOAD,2023-05-07 20:08:11,15.08843657,9.99e-05,53.2165,328.3717,96.4801,263.6305,7.7526e-05,9.46e-06,0.0,0 STARLINK-5249,1 54205U 22141BA  23127.83902377  .00000946  00000-0  77526-4 0  9990,2 54205  53.2165 328.3717 0000999  96.4801 263.6305 15.08843657 29470,6917.869,95.437,540.425,539.043,0.0
54205.0,STARLINK-5249,PAYLOAD,2023-05-08 19:58:58,15.0884902,9.86e-05,53.2152,323.9126,92.1688,267.9417,0.0001128,1.508e-05,0.0,0 STARLINK-5249,1 54205U 22141BA  23128.83262077  .00001508  00000-0  11280-3 0  9996,2 54205  53.2152 323.9126 0000986  92.1688 267.9417 15.08849020 29856,6917.853,95.437,540.4,539.036,0.0
54205.0,STARLINK-5249,PAYLOAD,2023-05-09 05:31:17,15.08843684,9.26e-05,53.2148,322.1288,90.6859,269.4239,3.58e-05,2.82e-06,0.0,0 STARLINK-5249,1 54205U 22141BA  23129.23006233  .00000282  00000-0  35800-4 0  9994,2 54205  53.2148 322.1288 0000926  90.6859 269.4239 15.08843684 29688,6917.869,95.437,540.375,539.094,0.0
54205.0,STARLINK-5249,PAYLOAD,2023-05-10 05:22:04,15.08841749,0.0001082,53.2174,317.6699,101.6934,258.418,9.8439e-05,1.279e-05,0.0,0 STARLINK-5249,1 54205U 22141BA  23130.22366590  .00001279  00000-0  98439-4 0  9994,2 54205  53.2174 317.6699 0001082 101.6934 258.4180 15.08841749 29833,6917.875,95.437,540.489,538.992,0.0
54205.0,STARLINK-5249,PAYLOAD,2023-05-10 18:05:10,15.08840144,9.75e-05,53.2165,315.2888,95.9618,264.1485,-2.0249e-05,-6.1e-06,0.0,0 STARLINK-5249,1 54205U 22141BA  23130.75358989 -.00000610  00000-0 -20249-4 0  9999,2 54205  53.2165 315.2888 0000975  95.9618 264.1485 15.08840144 29910,6917.88,95.438,540.419,539.07,0.0
54205.0,STARLINK-5249,PAYLOAD,2023-05-11 05:12:51,15.08845013,9.47e-05,53.2162,313.208,94.7874,265.3227,2.327e-05,8.3e-07,0.0,0 STARLINK-5249,1 54205U 22141BA  23131.21726511  .00000083  00000-0  23270-4 0  9990,2 54205  53.2162 313.2080 0000947  94.7874 265.3227 15.08845013 29983,6917.865,95.437,540.385,539.075,0.0
54205.0,STARLINK-5249,PAYLOAD,2023-05-11 16:20:34,15.08838448,9.71e-05,53.2162,311.1263,99.9255,260.1847,8.823e-05,1.117e-05,0.0,0 STARLINK-5249,1 54205U 22141BA  23131.68094931  .00001117  00000-0  88230-4 0  9991,2 54205  53.2162 311.1263 0000971  99.9255 260.1847 15.08838448 30280,6917.885,95.438,540.422,539.078,0.0
54205.0,STARLINK-5249,PAYLOAD,2023-05-12 05:03:38,15.08842112,0.0001065,53.2168,308.7478,97.6611,262.4502,6.7393e-05,7.85e-06,0.0,0 STARLINK-5249,1 54205U 22141BA  23132.21086727  .00000785  00000-0  67393-4 0  9992,2 54205  53.2168 308.7478 0001065  97.6611 262.4502 15.08842112 30132,6917.874,95.437,540.476,539.002,0.0
54205.0,STARLINK-5249,PAYLOAD,2023-05-12 17:46:44,15.08839794,9.57e-05,53.2158,306.3673,94.8083,265.3018,3.55e-05,2.77e-06,0.0,0 STARLINK-5249,1 54205U 22141BA  23132.74079061  .00000277  00000-0  35500-4 0  9994,2 54205  53.2158 306.3673 0000957  94.8083 265.3018 15.08839794 30443,6917.881,95.438,540.408,539.084,0.0
54205.0,STARLINK-5249,PAYLOAD,2023-05-13 04:54:26,15.08842345,8.9e-05,53.2155,304.2844,106.7633,253.3457,2.4692e-05,1.05e-06,0.0,0 STARLINK-5249,1 54205U 22141BA  23133.20446834  .00000105  00000-0  24692-4 0  9992,2 54205  53.2155 304.2844 0000890 106.7633 253.3457 15.08842345 30289,6917.873,95.437,540.354,539.123,0.0
54205.0,STARLINK-5249,PAYLOAD,2023-05-13 19:12:54,15.08846985,0.0001007,53.2175,301.6077,92.6687,267.4421,3.7761e-05,3.13e-06,0.0,0 STARLINK-5249,1 54205U 22141BA  23133.80062579  .00000313  00000-0  37761-4 0  9990,2 54205  53.2175 301.6077 0001007  92.6687 267.4421 15.08846985 30600,6917.859,95.437,540.421,539.027,0.0
54205.0,STARLINK-5249,PAYLOAD,2023-05-14 04:45:13,15.0884041,0.0001064,53.2168,299.8245,87.5304,272.581,5.6439e-05,6.11e-06,0.0,0 STARLINK-5249,1 54205U 22141BA  23134.19806951  .00000611  00000-0  56439-4 0  9997,2 54205  53.2168 299.8245 0001064  87.5304 272.5810 15.08840410 30661,6917.879,95.438,540.48,539.008,0.0
54205.0,STARLINK-5249,PAYLOAD,2023-05-14 14:17:32,15.08832366,0.0001095,53.217,298.0398,91.4374,268.6744,3.285e-05,2.35e-06,0.0,0 STARLINK-5249,1 54205U 22141BA  23134.59551588  .00000235  00000-0  32850-4 0  9997,2 54205  53.2170 298.0398 0001095  91.4374 268.6744 15.08832366 30493,6917.904,95.438,540.526,539.011,0.0
54205.0,STARLINK-5249,PAYLOAD,2023-05-14 19:03:41,15.08824099,0.0001265,53.2176,297.1468,101.9031,258.2103,0.00024736,3.649e-05,0.0,0 STARLINK-5249,1 54205U 22141BA  23134.79423413  .00003649  00000-0  24736-3 0  9999,2 54205  53.2176 297.1468 0001265 101.9031 258.2103 15.08824099 30750,6917.929,95.439,540.669,538.919,0.0
54205.0,STARLINK-5249,PAYLOAD,2023-05-14 20:39:04,15.08846247,0.0001215,53.2177,296.8491,97.3093,262.8038,-3.9963e-05,-9.24e-06,0.0,0 STARLINK-5249,1 54205U 22141BA  23134.86046948 -.00000924  00000-0 -39963-4 0  9995,2 54205  53.2177 296.8491 0001215  97.3093 262.8038 15.08846247 30537,6917.861,95.437,540.567,538.886,0.0
54205.0,STARLINK-5249,PAYLOAD,2023-05-15 17:19:05,15.08840236,0.0001068,53.2166,292.9849,87.6751,272.4363,7.3329e-05,8.79e-06,0.0,0 STARLINK-5249,1 54205U 22141BA  23135.72159054  .00000879  00000-0  73329-4 0  9995,2 54205  53.2166 292.9849 0001068  87.6751 272.4363 15.08840236 30662,6917.88,95.438,540.483,539.006,0.0
54205.0,STARLINK-5249,PAYLOAD,2023-05-16 10:48:20,15.08832341,0.0001271,53.217,289.7135,90.5096,269.6042,3.6761e-05,2.97e-06,0.0,0 STARLINK-5249,1 54205U 22141BA  23136.45023908  .00000297  00000-0  36761-4 0  9997,2 54205  53.2170 289.7135 0001271  90.5096 269.6042 15.08832341 31009,6917.904,95.438,540.648,538.89,0.0
54205.0,STARLINK-5249,PAYLOAD,2023-05-16 17:09:52,15.08838186,0.000114,53.2169,288.525,89.0748,271.0375,7.1985e-05,8.58e-06,0.0,0 STARLINK-5249,1 54205U 22141BA  23136.71519441  .00000858  00000-0  71985-4 0  9998,2 54205  53.2169 288.5250 0001140  89.0748 271.0375 15.08838186 31047,6917.886,95.438,540.54,538.962,0.0
54205.0,STARLINK-5249,PAYLOAD,2023-05-17 17:00:40,15.088356,0.0001199,53.2178,284.0672,98.0106,262.1023,3.472e-05,2.65e-06,0.0,0 STARLINK-5249,1 54205U 22141BA  23137.70879904  .00000265  00000-0  34720-4 0  9999,2 54205  53.2178 284.0672 0001199  98.0106 262.1023 15.08835600 30967,6917.894,95.438,540.588,538.929,0.0
54205.0,STARLINK-5249,PAYLOAD,2023-05-18 02:32:59,15.08838698,0.0001206,53.2176,282.2837,101.6954,258.4174,-2.332e-07,-2.92e-06,0.0,0 STARLINK-5249,1 54205U 22141BA  23138.10623861 -.00000292  00000-0 -23320-6 0  9991,2 54205  53.2176 282.2837 0001206 101.6954 258.4174 15.08838698 31257,6917.884,95.438,540.584,538.915,0.0
54205.0,STARLINK-5249,PAYLOAD,2023-05-18 18:26:50,15.08841454,0.000122,53.2173,279.3098,105.2176,254.8951,5.8596e-05,6.45e-06,0.0,0 STARLINK-5249,1 54205U 22141BA  23138.76863573  .00000645  00000-0  58596-4 0  9990,2 54205  53.2173 279.3098 0001220 105.2176 254.8951 15.08841454 31125,6917.876,95.437,540.585,538.897,0.0
54205.0,STARLINK-5249,PAYLOAD,2023-05-19 08:45:18,15.0883641,0.0001054,53.2157,276.6311,84.9954,275.1159,5.7686e-05,6.3e-06,0.0,0 STARLINK-5249,1 54205U 22141BA  23139.36479877  .00000630  00000-0  57686-4 0  9990,2 54205  53.2157 276.6311 0001054  84.9954 275.1159 15.08836410 31444,6917.891,95.438,540.486,539.027,0.0
54205.0,STARLINK-5249,PAYLOAD,2023-05-20 14:57:37,15.08850696,0.0001234,53.2168,270.9817,68.5622,291.5501,0.00010969,1.459e-05,0.0,0 STARLINK-5249,1 54205U 22141BA  23140.62334956  .00001459  00000-0  10969-3 0  9991,2 54205  53.2168 270.9817 0001234  68.5622 291.5501 15.08850696 31630,6917.848,95.437,540.566,538.859,0.0
54205.0,STARLINK-5249,PAYLOAD,2023-05-21 08:26:52,15.0883492,0.0001472,53.2158,267.7116,80.3612,279.7546,-1.0205e-06,-3.04e-06,0.0,0 STARLINK-5249,1 54205U 22141BA  23141.35200178 -.00000304  00000-0 -10205-5 0  9995,2 54205  53.2158 267.7116 0001472  80.3612 279.7546 15.08834920 31741,6917.896,95.438,540.779,538.743,0.0
54205.0,STARLINK-5249,PAYLOAD,2023-05-21 11:37:39,15.08827126,0.0001055,53.2156,267.1167,80.1011,280.01,-6.6371e-05,-1.343e-05,0.0,0 STARLINK-5249,1 54205U 22141BA  23141.48448826 -.00001343  00000-0 -66371-4 0  9991,2 54205  53.2156 267.1167 0001055  80.1011 280.0100 15.08827126 31535,6917.92,95.438,540.515,539.055,0.0
54205.0,STARLINK-5249,PAYLOAD,2023-05-21 14:48:25,15.08829999,0.0001091,53.2156,266.5216,83.5173,276.5943,-3.5354e-05,-8.5e-06,0.0,0 STARLINK-5249,1 54205U 22141BA  23141.61696639 -.00000850  00000-0 -35354-4 0  9992,2 54205  53.2156 266.5216 0001091  83.5173 276.5943 15.08829999 31556,6917.911,95.438,540.531,539.021,0.0
54205.0,STARLINK-5249,PAYLOAD,2023-05-22 08:17:39,15.08839932,0.0001248,53.2158,263.248,101.267,258.8463,2.8949e-05,1.73e-06,0.0,0 STARLINK-5249,1 54205U 22141BA  23142.34560014  .00000173  00000-0  28949-4 0  9998,2 54205  53.2158 263.2480 0001248 101.2670 258.8463 15.08839932 31894,6917.881,95.438,540.609,538.882,0.0
54205.0,STARLINK-5249,PAYLOAD,2023-05-22 14:39:11,15.08850273,0.0001079,53.2162,262.059,97.6129,262.4986,4.1587e-05,3.74e-06,0.0,0 STARLINK-5249,1 54205U 22141BA  23142.61055374  .00000374  00000-0  41587-4 0  9992,2 54205  53.2162 262.0590 0001079  97.6129 262.4986 15.08850273 31934,6917.849,95.437,540.46,538.968,0.0
54205.0,STARLINK-5249,PAYLOAD,2023-05-23 11:19:13,15.08832154,0.0001136,53.2158,258.1937,100.3268,259.7852,0.00015132,2.121e-05,0.0,0 STARLINK-5249,1 54205U 22141BA  23143.47168409  .00002121  00000-0  15132-3 0  9999,2 54205  53.2158 258.1937 0001136 100.3268 259.7852 15.08832154 32064,6917.904,95.438,540.555,538.983,0.0
